COSMOS 2545 (760)       
1 45358U 20018A   26177.14029510 -.00000086  00000+0  00000+0 0  9994
2 45358  64.3491 312.1035 0008747 229.5751 130.3383  2.13102504 48850
BEIDOU-3 G3 (C61)       
1 45807U 20040A   26177.75884733 -.00000345  00000+0  00000+0 0  9999
2 45807   2.4710  67.4792 0002643 328.6673 262.4520  1.00274671 22165
GPS BIII-3  (PRN 23)    
1 45854U 20041A   26177.71006220 -.00000081  00000+0  00000+0 0  9992
2 45854  56.6762  28.5735 0064532 204.5005 157.1000  2.00558725 44237
GALAXY 30 (WAAS/PRN 135)
1 46114U 20056C   26177.64089441  .00000000  00000+0  00000+0 0  9996
2 46114   0.0274  17.4127 0002295  76.1713 286.8850  1.00270787 21389
COSMOS 2547 (705K)      
1 46805U 20075A   26177.32991645  .00000106  00000+0  00000+0 0  9994
2 46805  64.5999 192.1702 0009406 239.7382 120.2220  2.13100201 44100
GPS BIII-4  (PRN 14)    
1 46826U 20078A   26177.24606883  .00000083  00000+0  00000+0 0  9992
2 46826  53.9789 210.4109 0073823 207.4122 155.8219  2.00565126 41695
GPS BIII-5  (PRN 11)    
1 48859U 21054A   26177.73280479 -.00000105  00000+0  00000+0 0  9994
2 48859  55.1697 332.0757 0025695 228.3266 312.6633  2.00568715 36942
QZS-1R (QZSS/PRN 196)   
1 49336U 21096A   26177.61891060 -.00000312  00000+0  00000+0 0  9992
2 49336  37.4804  79.4425 0755635 271.9684 279.4688  1.00253032 17101
GSAT0223 (GALILEO 27)   
1 49809U 21116A   26174.44047914 -.00000098  00000+0  00000+0 0  9990
2 49809  57.1590 341.5051 0001600 183.5383 174.0725  1.70476308 28288
GSAT0224 (GALILEO 28)   
1 49810U 21116B   26176.61813146 -.00000097  00000+0  00000+0 0  9990
2 49810  57.1582 341.4456 0001373 160.1269 206.5880  1.70476480 28352
COSMOS 2557 (706K)      
1 52984U 22075A   26177.49413714 -.00000086  00000+0  00000+0 0  9993
2 52984  64.2926 314.1567 0010292 273.4812  86.3901  2.13102239 30910
COSMOS 2559 (707K)      
1 54031U 22130A   26177.31378409 -.00000086  00000+0  00000+0 0  9992
2 54031  64.2654 314.2468 0012740 178.9915 181.0006  2.13101803 28885
COSMOS 2564 (761)       
1 54377U 22161A   26177.15703373  .00000107  00000+0  00000+0 0  9996
2 54377  64.7425 192.4139 0012256 225.0447 134.9097  2.13102114 27822
GPS BIII-6  (PRN 28)    
1 55268U 23009A   26176.93387399  .00000044  00000+0  00000+0 0  9999
2 55268  55.1240 148.1751 0006264 317.1527  45.3707  2.00571086 25424
BEIDOU-3 G4 (C62)       
1 56564U 23066A   26177.76465403 -.00000269  00000+0  00000+0 0  9997
2 56564   0.4763 333.9519 0004803 175.4517 180.8125  1.00271192 11488
NVS-01 (IRNSS-1J)       
1 56759U 23076A   26177.69125544 -.00000322  00000+0  00000+0 0  9995
2 56759   2.1438 243.9063 0002810  12.8994  36.3982  1.00274943 11219
COSMOS 2569 (703K)      
1 57517U 23114A   26177.63859444 -.00000058  00000+0  00000+0 0  9994
2 57517  65.3074  72.3017 0010334 296.7175  63.2173  2.13103862 22462
